IRIDIUM 135             
1 43070U 17083A   26195.57059243  .00000112  00000+0  32974-4 0  9993
2 43070  86.3985 310.5687 0002197  93.9174 266.2273 14.34218328448074
IRIDIUM 138             
1 43071U 17083B   26195.59596189  .00000136  00000+0  41540-4 0  9996
2 43071  86.3999 310.2578 0002060  91.9221 268.2211 14.34218507448068
IRIDIUM 116             
1 43072U 17083C   26195.35494302  .00000124  00000+0  37206-4 0  9996
2 43072  86.3985 310.6445 0002435  98.8202 261.3270 14.34217587448068
IRIDIUM 130             
1 43073U 17083D   26195.39300248  .00000134  00000+0  40707-4 0  9997
2 43073  86.3992 310.9065 0002244 100.7448 259.4000 14.34217766448014
IRIDIUM 151             
1 43074U 17083E   26195.57693551  .00000138  00000+0  42216-4 0  9991
2 43074  86.3986 310.6101 0002249  95.2896 264.8557 14.34218064448060
IRIDIUM 134             
1 43075U 17083F   26195.40568516  .00000089  00000+0  24774-4 0  9990
2 43075  86.3988 310.6902 0002226  95.4696 264.6754 14.34218095448002
IRIDIUM 137             
1 43076U 17083G   26195.55790834  .00000114  00000+0  33792-4 0  9996
2 43076  86.3990 310.7199 0002687  93.3745 266.7758 14.34218320448095
IRIDIUM 141             
1 43077U 17083H   26195.55156429  .00000079  00000+0  21179-4 0  9999
2 43077  86.3985 310.5515 0002178  93.2672 266.8773 14.34217641448096
IRIDIUM 153             
1 43078U 17083J   26195.29443759  .00000069  00000+0  17700-4 0  9990
2 43078  86.3960 279.1384 0002112  94.4020 265.7417 14.34217830449164
IRIDIUM 131             
1 43079U 17083K   26195.39934274  .00000081  00000+0  21925-4 0  9997
2 43079  86.3992 310.8029 0002229  93.4187 266.7263 14.34218140448008
IRIDIUM 144             
1 43249U 18030A   26195.51008611  .00000063  00000+0  15462-4 0  9999
2 43249  86.3958 278.9767 0002375  97.2029 262.9437 14.34217850434059
IRIDIUM 149             
1 43250U 18030B   26195.51642885  .00000105  00000+0  30285-4 0  9995
2 43250  86.3957 278.9407 0002260  93.2634 266.8820 14.34218002434073
IRIDIUM 157             
1 43251U 18030C   26195.60522748  .00000144  00000+0  44199-4 0  9993
2 43251  86.3961 278.9577 0002256  94.4358 265.7096 14.34217913434060
IRIDIUM 140             
1 43252U 18030D   26195.62425525  .00000153  00000+0  47485-4 0  9992
2 43252  86.3959 278.9622 0002239  95.7843 264.3608 14.34217542434122
IRIDIUM 145             
1 43253U 18030E   26195.61156684  .00000122  00000+0  36344-4 0  9997
2 43253  86.3958 278.9395 0002522 100.5789 259.5691 14.34217385434053
IRIDIUM 146             
1 43254U 18030F   26195.59253948  .00000081  00000+0  21727-4 0  9999
2 43254  86.3959 278.9597 0002377  96.6581 263.4885 14.34217643434069
IRIDIUM 148             
1 43255U 18030G   26195.63059854  .00000143  00000+0  43832-4 0  9995
2 43255  86.3961 278.9872 0002346  93.7046 266.4418 14.34217873434104
IRIDIUM 142             
1 43256U 18030H   26195.59888269  .00000097  00000+0  27438-4 0  9993
2 43256  86.3954 278.8885 0002430  97.3523 262.7949 14.34218040434064
IRIDIUM 150             
1 43257U 18030J   26195.49739865 -.00000191  00000+0 -75243-4 0  9994
2 43257  86.3956 279.0481 0002125  96.4391 263.7047 14.34216060434077
IRIDIUM 143             
1 43258U 18030K   26195.61791122  .00000071  00000+0  18290-4 0  9997
2 43258  86.3962 279.0914 0002327  97.5259 262.6202 14.34217414434025
IRIDIUM 161             
1 43478U 18047C   26195.62399827  .00000151  00000+0  38820-4 0  9996
2 43478  86.4463  76.9973 0002274  80.4627 279.6831 14.43275507429090
IRIDIUM 152             
1 43479U 18047D   26195.59062868  .00000143  00000+0  44113-4 0  9998
2 43479  86.3936  76.8722 0002112  83.6351 276.5085 14.34219979426417
IRIDIUM 147             
1 43480U 18047E   26195.59697009  .00000102  00000+0  29370-4 0  9994
2 43480  86.3939  76.8755 0002268  88.9292 271.2164 14.34217402426411
IRIDIUM 110             
1 43481U 18047F   26195.60331294  .00000159  00000+0  49540-4 0  9991
2 43481  86.3941  76.9655 0002131  77.4642 282.6792 14.34218493426409
IRIDIUM 162             
1 43482U 18047G   26195.61770435  .00000204  00000+0  54643-4 0  9998
2 43482  86.4460  76.8904 0002207  87.3214 272.8239 14.43278348429081
IRIDIUM 160             
1 43569U 18061A   26195.61891661  .00000121  00000+0  36242-4 0  9998
2 43569  86.3940  45.3229 0002244  86.9466 273.1987 14.34216893417308
IRIDIUM 166             
1 43570U 18061B   26195.57451984  .00000031  00000+0  41576-5 0  9992
2 43570  86.3938  45.2917 0002292  90.3843 269.7616 14.34217576417322
IRIDIUM 158             
1 43571U 18061C   26195.61257489  .00000064  00000+0  15934-4 0  9996
2 43571  86.3939  45.2856 0002070  87.0705 273.0728 14.34217664417296
IRIDIUM 165             
1 43572U 18061D   26195.63794563  .00000015  00000+0 -16489-5 0  9992
2 43572  86.3937  45.3214 0002166  91.2597 268.8847 14.34216965417327
IRIDIUM 155             
1 43573U 18061E   26195.59988939  .00000089  00000+0  24686-4 0  9997
2 43573  86.3938  45.2057 0002115  89.5601 270.5837 14.34217637417284
