OBJECT_NAME,OBJECT_ID,EPOCH,MEAN_MOTION,ECCENTRICITY,INCLINATION,RA_OF_ASC_NODE,ARG_OF_PERICENTER,MEAN_ANOMALY,EPHEMERIS_TYPE,CLASSIFICATION_TYPE,NORAD_CAT_ID,ELEMENT_SET_NO,REV_AT_EPOCH,BSTAR,MEAN_MOTION_DOT,MEAN_MOTION_DDOT
IRIDIUM 135,2017-083A,2026-07-14T13:41:39.185952,14.34218328,.00021972,86.3985,310.5687,93.9174,266.2273,0,U,43070,999,44807,.32973529E-4,.112E-5,0
IRIDIUM 138,2017-083B,2026-07-14T14:18:11.107296,14.34218507,.00020606,86.3999,310.2578,91.9221,268.2211,0,U,43071,999,44806,.41539602E-4,.136E-5,0
IRIDIUM 116,2017-083C,2026-07-14T08:31:07.076928,14.34217587,.00024351,86.3985,310.6445,98.8202,261.3270,0,U,43072,999,44806,.3720553E-4,.124E-5,0
IRIDIUM 130,2017-083D,2026-07-14T09:25:55.414272,14.34217766,.00022447,86.3992,310.9065,100.7448,259.4000,0,U,43073,999,44801,.40706609E-4,.134E-5,0
IRIDIUM 151,2017-083E,2026-07-14T13:50:47.228064,14.34218064,.00022492,86.3986,310.6101,95.2896,264.8557,0,U,43074,999,44806,.4221598E-4,.138E-5,0
IRIDIUM 134,2017-083F,2026-07-14T09:44:11.197824,14.34218095,.00022262,86.3988,310.6902,95.4696,264.6754,0,U,43075,999,44800,.24774147E-4,.89E-6,0
IRIDIUM 137,2017-083G,2026-07-14T13:23:23.280576,14.34218320,.00026873,86.3990,310.7199,93.3745,266.7758,0,U,43076,999,44809,.33792268E-4,.114E-5,0
IRIDIUM 141,2017-083H,2026-07-14T13:14:15.154656,14.34217641,.0002178,86.3985,310.5515,93.2672,266.8773,0,U,43077,999,44809,.21178617E-4,.79E-6,0
IRIDIUM 153,2017-083J,2026-07-14T07:03:59.407776,14.34217830,.00021121,86.3960,279.1384,94.4020,265.7417,0,U,43078,999,44916,.17699994E-4,.69E-6,0
IRIDIUM 131,2017-083K,2026-07-14T09:35:03.212736,14.34218140,.00022295,86.3992,310.8029,93.4187,266.7263,0,U,43079,999,44800,.21924878E-4,.81E-6,0
IRIDIUM 144,2018-030A,2026-07-14T12:14:31.439904,14.34217850,.00023754,86.3958,278.9767,97.2029,262.9437,0,U,43249,999,43405,.15461769E-4,.63E-6,0
IRIDIUM 149,2018-030B,2026-07-14T12:23:39.452640,14.34218002,.00022605,86.3957,278.9407,93.2634,266.8820,0,U,43250,999,43407,.30285208E-4,.105E-5,0
IRIDIUM 157,2018-030C,2026-07-14T14:31:31.654272,14.34217913,.00022568,86.3961,278.9577,94.4358,265.7096,0,U,43251,999,43406,.44199355E-4,.144E-5,0
IRIDIUM 140,2018-030D,2026-07-14T14:58:55.653600,14.34217542,.00022391,86.3959,278.9622,95.7843,264.3608,0,U,43252,999,43412,.47485461E-4,.153E-5,0
IRIDIUM 145,2018-030E,2026-07-14T14:40:39.374976,14.34217385,.00025228,86.3958,278.9395,100.5789,259.5691,0,U,43253,999,43405,.36344324E-4,.122E-5,0
IRIDIUM 146,2018-030F,2026-07-14T14:13:15.411072,14.34217643,.00023772,86.3959,278.9597,96.6581,263.4885,0,U,43254,999,43406,.21726704E-4,.81E-6,0
IRIDIUM 148,2018-030G,2026-07-14T15:08:03.713856,14.34217873,.00023463,86.3961,278.9872,93.7046,266.4418,0,U,43255,999,43410,.43832248E-4,.143E-5,0
IRIDIUM 142,2018-030H,2026-07-14T14:22:23.464416,14.34218040,.00024307,86.3954,278.8885,97.3523,262.7949,0,U,43256,999,43406,.2743757E-4,.97E-6,0
IRIDIUM 150,2018-030J,2026-07-14T11:56:15.243360,14.34216060,.00021256,86.3956,279.0481,96.4391,263.7047,0,U,43257,999,43407,-.75243272E-4,-.191E-5,0
IRIDIUM 143,2018-030K,2026-07-14T14:49:47.529408,14.34217414,.00023272,86.3962,279.0914,97.5259,262.6202,0,U,43258,999,43402,.18290166E-4,.71E-6,0
IRIDIUM 161,2018-047C,2026-07-14T14:58:33.450528,14.43275507,.00022748,86.4463,76.9973,80.4627,279.6831,0,U,43478,999,42909,.38819511E-4,.151E-5,0
IRIDIUM 152,2018-047D,2026-07-14T14:10:30.317952,14.34219979,.00021122,86.3936,76.8722,83.6351,276.5085,0,U,43479,999,42641,.44113229E-4,.143E-5,0
IRIDIUM 147,2018-047E,2026-07-14T14:19:38.215776,14.34217402,.00022683,86.3939,76.8755,88.9292,271.2164,0,U,43480,999,42641,.29369519E-4,.102E-5,0
IRIDIUM 110,2018-047F,2026-07-14T14:28:46.238016,14.34218493,.00021318,86.3941,76.9655,77.4642,282.6792,0,U,43481,999,42640,.49539552E-4,.159E-5,0
IRIDIUM 162,2018-047G,2026-07-14T14:49:29.655840,14.43278348,.00022076,86.4460,76.8904,87.3214,272.8239,0,U,43482,999,42908,.54642541E-4,.204E-5,0
IRIDIUM 160,2018-061A,2026-07-14T14:51:14.395104,14.34216893,.00022442,86.3940,45.3229,86.9466,273.1987,0,U,43569,999,41730,.36241685E-4,.121E-5,0
IRIDIUM 166,2018-061B,2026-07-14T13:47:18.514176,14.34217576,.00022923,86.3938,45.2917,90.3843,269.7616,0,U,43570,999,41732,.4157588E-5,.31E-6,0
IRIDIUM 158,2018-061C,2026-07-14T14:42:06.470496,14.34217664,.00020705,86.3939,45.2856,87.0705,273.0728,0,U,43571,999,41729,.15933535E-4,.64E-6,0
IRIDIUM 165,2018-061D,2026-07-14T15:18:38.502432,14.34216965,.00021669,86.3937,45.3214,91.2597,268.8847,0,U,43572,999,41732,-.1648926E-5,.15E-6,0
IRIDIUM 155,2018-061E,2026-07-14T14:23:50.443296,14.34217637,.00021153,86.3938,45.2057,89.5601,270.5837,0,U,43573,999,41728,.24686468E-4,.89E-6,0
